STARLINK-36985          
1 68014U 26039AE  26065.58334491 -.01476222  64882-3 -32640-2 0  9999
2 68014  42.9975  74.0094 0001920 274.8677  42.9947 15.97154925  2379
STARLINK-36335          
1 68015U 26040A   26064.87432845  .00009585  23629-5  99844-5 0  9994
2 68015  97.2861  12.6592 0001327  36.5206 323.6169 16.11618122   723
STARLINK-36923          
1 68016U 26040B   26064.87402716 -.00039361  29942-5 -36910-4 0  9994
2 68016  97.2862  12.6596 0001240  28.7023 331.4329 16.11809964   724
STARLINK-36568          
1 68017U 26040C   26064.99806953  .00028377  27067-5  27876-4 0  9999
2 68017  97.2865  12.7983 0000643  79.3353 280.8005 16.11778226   749
STARLINK-36930          
1 68018U 26040D   26064.99838237  .00026925  26659-5  26870-4 0  9996
2 68018  97.2862  12.7971 0000882  91.8438 268.2948 16.11560084   749
STARLINK-36921          
1 68019U 26040E   26064.99778205  .00013027  24033-5  13001-4 0  9990
2 68019  97.2864  12.7985 0001571 117.0515 243.0930 16.11975695   740
STARLINK-36928          
1 68020U 26040F   26064.99793664 -.00006546  23310-5 -55392-5 0  9995
2 68020  97.2866  12.7980 0001066 111.5184 248.6215 16.11853920   742
STARLINK-36858          
1 68021U 26040G   26064.99763022 -.00122004  88922-5 -11423-3 0  9994
2 68021  97.2860  12.7982 0001453 110.0366 250.1075 16.12025112   742
STARLINK-36916          
1 68022U 26040H   26064.99747198 -.00012465  23803-5 -10944-4 0  9995
2 68022  97.2863  12.7990 0001078 103.3373 256.8033 16.12170074   746
STARLINK-36871          
1 68023U 26040J   26064.99732245  .00019384  25054-5  18646-4 0  9995
2 68023  97.2861  12.7981 0000882  75.6591 284.4792 16.12265508   746
STARLINK-36891          
1 68024U 26040K   26064.99713943 -.00001683  23187-5 -87140-6 0  9997
2 68024  97.2861  12.7994 0001181 130.9298 229.2090 16.12410820   740
STARLINK-36378          
1 68025U 26040L   26064.99681350  .00046280  33595-5  42450-4 0  9991
2 68025  97.2861  12.7997 0001347  98.1660 261.9778 16.12653204   747
STARLINK-36884          
1 68026U 26040M   26064.99697275 -.00003384  23222-5 -24139-5 0  9996
2 68026  97.2860  12.7993 0000801  88.6237 271.5140 16.12528427   749
STARLINK-36940          
1 68027U 26040N   26064.99305997  .00151361  13901-4  11963-3 0  9992
2 68027  97.2839  12.8052 0001912  71.0883 289.0611 16.14665968   741
STARLINK-36253          
1 68028U 26040P   26064.93553867 -.00425590  74072-4 -50668-3 0  9999
2 68028  97.2837  12.7290 0000573  95.1723 264.9625 16.08421062   739
STARLINK-36944          
1 68029U 26040Q   26064.99666359  .00117197  89965-5  10566-3 0  9997
2 68029  97.2854  12.7991 0001807 104.5186 255.6300 16.12768114   741
